NORAD_CAT_ID,OBJECT_NAME,OBJECT_TYPE,EPOCH,MEAN_MOTION,ECCENTRICITY,INCLINATION,RA_OF_ASC_NODE,ARG_OF_PERICENTER,MEAN_ANOMALY,BSTAR,MEAN_MOTION_DOT,MEAN_MOTION_DDOT,TLE_LINE0,TLE_LINE1,TLE_LINE2,SEMIMAJOR_AXIS,PERIOD,APOGEE,PERIGEE,DECAYED
55961.0,STARLINK-5933,PAYLOAD,2024-05-06 19:20:21,14.98331948,0.0003087,69.9988,158.4286,270.2118,89.8688,0.00013114,1.472e-05,0.0,0 STARLINK-5933,1 55961U 23037AZ  24127.80580196  .00001472  00000-0  13114-3 0  9991,2 55961  69.9988 158.4286 0003087 270.2118  89.8688 14.98331948 63837,6950.187,96.107,574.197,569.906,0.0
55961.0,STARLINK-5933,PAYLOAD,2024-05-07 04:57:09,14.98336646,0.0003114,69.9987,157.4184,269.8062,90.274,0.00010906,1.209e-05,0.0,0 STARLINK-5933,1 55961U 23037AZ  24128.20635847  .00001209  00000-0  10906-3 0  9994,2 55961  69.9987 157.4184 0003114 269.8062  90.2740 14.98336646 64235,6950.172,96.107,574.202,569.873,0.0
55961.0,STARLINK-5933,PAYLOAD,2024-05-07 11:21:41,14.98338404,0.0003098,69.9988,156.7451,269.8773,90.2031,0.00012061,1.347e-05,0.0,0 STARLINK-5933,1 55961U 23037AZ  24128.47339566  .00001347  00000-0  12061-3 0  9999,2 55961  69.9988 156.7451 0003098 269.8773  90.2031 14.98338404 63938,6950.167,96.106,574.185,569.879,0.0
55961.0,STARLINK-5933,PAYLOAD,2024-05-08 04:59:10,14.98329853,0.000302,69.9988,154.8937,269.7574,90.3239,-5.6482e-05,-7.67e-06,0.0,0 STARLINK-5933,1 55961U 23037AZ  24129.20776377 -.00000767  00000-0 -56482-4 0  9999,2 55961  69.9988 154.8937 0003020 269.7574  90.3239 14.98329853 64388,6950.193,96.107,574.157,569.959,0.0
55961.0,STARLINK-5933,PAYLOAD,2024-05-08 11:23:43,14.98329029,0.0003054,69.9988,154.2201,268.5945,91.4864,-7.4479e-05,-9.82e-06,0.0,0 STARLINK-5933,1 55961U 23037AZ  24129.47480438 -.00000982  00000-0 -74479-4 0  9993,2 55961  69.9988 154.2201 0003054 268.5945  91.4864 14.98329029 64080,6950.196,96.107,574.183,569.938,0.0
55961.0,STARLINK-5933,PAYLOAD,2024-05-08 19:24:23,14.98333573,0.0003038,69.9989,153.3787,268.2986,91.7825,-5.2005e-05,-7.14e-06,0.0,0 STARLINK-5933,1 55961U 23037AZ  24129.80860031 -.00000714  00000-0 -52005-4 0  9995,2 55961  69.9989 153.3787 0003038 268.2986  91.7825 14.98333573 64139,6950.182,96.107,574.158,569.935,0.0
55961.0,STARLINK-5933,PAYLOAD,2024-05-09 05:01:11,14.98336243,0.0003079,69.9988,152.3686,268.5455,91.5351,-4.1556e-05,-5.89e-06,0.0,0 STARLINK-5933,1 55961U 23037AZ  24130.20915665 -.00000589  00000-0 -41556-4 0  9994,2 55961  69.9988 152.3686 0003079 268.5455  91.5351 14.98336243 64537,6950.174,96.107,574.179,569.899,0.0
55961.0,STARLINK-5933,PAYLOAD,2024-05-09 11:25:43,14.98335885,0.0003063,69.9989,151.6952,268.1022,91.9787,-4.8815e-05,-6.76e-06,0.0,0 STARLINK-5933,1 55961U 23037AZ  24130.47619607 -.00000676  00000-0 -48815-4 0  9992,2 55961  69.9989 151.6952 0003063 268.1022  91.9787 14.98335885 64230,6950.175,96.107,574.169,569.911,0.0
55961.0,STARLINK-5933,PAYLOAD,2024-05-10 11:27:44,14.98329701,0.0003131,69.9987,149.1705,267.8288,92.2513,5.6328e-05,5.79e-06,0.0,0 STARLINK-5933,1 55961U 23037AZ  24131.47759573  .00000579  00000-0  56328-4 0  9998,2 55961  69.9987 149.1705 0003131 267.8288  92.2513 14.98329701 64389,6950.194,96.107,574.235,569.883,0.0
55961.0,STARLINK-5933,PAYLOAD,2024-05-10 17:52:16,14.98328752,0.0003128,69.9988,148.4972,267.8894,92.1907,1.1681e-05,4.6e-07,0.0,0 STARLINK-5933,1 55961U 23037AZ  24131.74463743  .00000046  00000-0  11681-4 0  9991,2 55961  69.9988 148.4972 0003128 267.8894  92.1907 14.98328752 64423,6950.197,96.107,574.236,569.888,0.0
55961.0,STARLINK-5933,PAYLOAD,2024-05-11 08:17:28,14.98340126,0.0002776,69.9988,146.982,265.6211,94.4631,2.5819e-05,2.15e-06,0.0,0 STARLINK-5933,1 55961U 23037AZ  24132.34547013  .00000215  00000-0  25819-4 0  9997,2 55961  69.9988 146.9820 0002776 265.6211  94.4631 14.98340126 64850,6950.162,96.106,573.956,570.097,0.0
55961.0,STARLINK-5933,PAYLOAD,2024-05-11 17:54:16,14.9834998,0.000307,69.999,145.9722,270.7974,89.2834,-8.0396e-05,-1.053e-05,0.0,0 STARLINK-5933,1 55961U 23037AZ  24132.74602211 -.00001053  00000-0 -80396-4 0  9997,2 55961  69.9990 145.9722 0003070 270.7974  89.2834 14.98349980 64577,6950.131,96.106,574.13,569.862,0.0
55961.0,STARLINK-5933,PAYLOAD,2024-05-12 09:55:37,14.98332696,0.0003026,69.9992,144.2893,268.2014,91.8799,2.7097e-05,2.3e-06,0.0,0 STARLINK-5933,1 55961U 23037AZ  24133.41362861  .00000230  00000-0  27097-4 0  9999,2 55961  69.9992 144.2893 0003026 268.2014  91.8799 14.98332696 65013,6950.185,96.107,574.153,569.946,0.0
55961.0,STARLINK-5933,PAYLOAD,2024-05-13 05:09:15,14.9831916,0.0002764,69.9997,142.2701,268.2665,91.8177,-0.00016845,-2.102e-05,0.0,0 STARLINK-5933,1 55961U 23037AZ  24134.21476500 -.00002102  00000-0 -16845-3 0  9994,2 55961  69.9997 142.2701 0002764 268.2665  91.8177 14.98319160 65138,6950.226,96.108,574.012,570.17,0.0
55961.0,STARLINK-5933,PAYLOAD,2024-05-13 09:57:40,14.98315177,0.0002789,69.9991,141.7648,270.7036,89.3803,-0.00022602,-2.788e-05,0.0,0 STARLINK-5933,1 55961U 23037AZ  24134.41505072 -.00002788  00000-0 -22602-3 0  9991,2 55961  69.9991 141.7648 0002789 270.7036  89.3803 14.98315177 64820,6950.239,96.108,574.042,570.165,0.0
55961.0,STARLINK-5933,PAYLOAD,2024-05-14 05:11:16,14.98320479,0.000297,69.9986,139.7443,271.4073,88.6746,-9.3017e-05,-1.202e-05,0.0,0 STARLINK-5933,1 55961U 23037AZ  24135.21616855 -.00001202  00000-0 -93017-4 0  9991,2 55961  69.9986 139.7443 0002970 271.4073  88.6746 14.98320479 65285,6950.222,96.108,574.152,570.023,0.0
55961.0,STARLINK-5933,PAYLOAD,2024-05-14 09:59:41,14.98320042,0.0002919,69.9987,139.2391,270.2964,89.7861,-6.6469e-05,-8.86e-06,0.0,0 STARLINK-5933,1 55961U 23037AZ  24135.41644943 -.00000886  00000-0 -66469-4 0  9990,2 55961  69.9987 139.2391 0002919 270.2964  89.7861 14.98320042 64973,6950.224,96.108,574.117,570.06,0.0
55961.0,STARLINK-5933,PAYLOAD,2024-05-14 18:00:21,14.98323543,0.0002969,69.9985,138.3977,270.5416,89.5403,-5.6306e-05,-7.65e-06,0.0,0 STARLINK-5933,1 55961U 23037AZ  24135.75024922 -.00000765  00000-0 -56306-4 0  9991,2 55961  69.9985 138.3977 0002969 270.5416  89.5403 14.98323543 65027,6950.213,96.107,574.141,570.014,0.0
55961.0,STARLINK-5933,PAYLOAD,2024-05-15 05:13:18,14.98314812,0.0002906,69.9985,137.2194,270.8571,89.2255,0.00013879,1.563e-05,0.0,0 STARLINK-5933,1 55961U 23037AZ  24136.21757342  .00001563  00000-0  13879-3 0  9994,2 55961  69.9985 137.2194 0002906 270.8571  89.2255 14.98314812 65438,6950.24,96.108,574.125,570.085,0.0
55961.0,STARLINK-5933,PAYLOAD,2024-05-15 10:01:42,14.98317639,0.0002935,69.9984,136.7141,270.1322,89.9501,0.00015953,1.81e-05,0.0,0 STARLINK-5933,1 55961U 23037AZ  24136.41785304  .00001810  00000-0  15953-3 0  9995,2 55961  69.9984 136.7141 0002935 270.1322  89.9501 14.98317639 65129,6950.231,96.108,574.136,570.056,0.0
55961.0,STARLINK-5933,PAYLOAD,2024-05-16 05:15:19,14.98329384,0.0002953,69.9982,134.6936,271.0629,89.0191,0.00010428,1.151e-05,0.0,0 STARLINK-5933,1 55961U 23037AZ  24137.21897079  .00001151  00000-0  10428-3 0  9997,2 55961  69.9982 134.6936 0002953 271.0629  89.0191 14.98329384 65582,6950.195,96.107,574.112,570.007,0.0
55961.0,STARLINK-5933,PAYLOAD,2024-05-16 10:03:43,14.98331439,0.000299,69.9984,134.189,271.4697,88.612,0.00015762,1.788e-05,0.0,0 STARLINK-5933,1 55961U 23037AZ  24137.41924769  .00001788  00000-0  15762-3 0  9998,2 55961  69.9984 134.1890 0002990 271.4697  88.6120 14.98331439 65275,6950.188,96.107,574.132,569.975,0.0
55961.0,STARLINK-5933,PAYLOAD,2024-05-16 16:28:14,14.98338113,0.0003704,69.9988,133.516,267.1371,92.9364,0.0001796,2.051e-05,0.0,0 STARLINK-5933,1 55961U 23037AZ  24137.68627881  .00002051  00000-0  17960-3 0  9998,2 55961  69.9988 133.5160 0003704 267.1371  92.9364 14.98338113 65653,6950.168,96.106,574.607,569.458,0.0
55961.0,STARLINK-5933,PAYLOAD,2024-05-17 03:41:10,14.98355829,0.000221,69.9982,132.3376,275.9137,84.177,-6.1576e-05,-8.28e-06,0.0,0 STARLINK-5933,1 55961U 23037AZ  24138.15359590 -.00000828  00000-0 -61576-4 0  9995,2 55961  69.9982 132.3376 0002210 275.9137  84.1770 14.98355829 65726,6950.113,96.105,573.514,570.442,0.0
55961.0,STARLINK-5933,PAYLOAD,2024-05-17 08:29:33,14.98410175,0.0002719,69.9983,131.8329,278.8267,81.2584,-0.00089695,-0.00010801,0.0,0 STARLINK-5933,1 55961U 23037AZ  24138.35385814 -.00010801  00000-0 -89695-3 0  9998,2 55961  69.9983 131.8329 0002719 278.8267  81.2584 14.98410175 65759,6949.945,96.102,573.7,569.92,0.0
55961.0,STARLINK-5933,PAYLOAD,2024-05-17 16:30:15,14.98344527,0.0002841,69.9987,130.9874,283.398,76.6862,1.8413e-05,1.27e-06,0.0,0 STARLINK-5933,1 55961U 23037AZ  24138.68767465  .00000127  00000-0  18413-4 0  9999,2 55961  69.9987 130.9874 0002841 283.3980  76.6862 14.98344527 65807,6950.148,96.106,573.988,570.038,0.0
55961.0,STARLINK-5933,PAYLOAD,2024-05-17 22:54:47,14.98334717,0.0002742,69.9989,130.3186,269.6701,90.4143,-4.6781e-05,-6.51e-06,0.0,0 STARLINK-5933,1 55961U 23037AZ  24138.95472106 -.00000651  00000-0 -46781-4 0  9997,2 55961  69.9989 130.3186 0002742 269.6701  90.4143 14.98334717 65500,6950.178,96.107,573.949,570.138,0.0
55961.0,STARLINK-5933,PAYLOAD,2024-05-18 05:19:18,14.9835528,0.0002947,69.9983,129.6439,268.506,91.5762,0.00015973,1.815e-05,0.0,0 STARLINK-5933,1 55961U 23037AZ  24139.22174069  .00001815  00000-0  15973-3 0  9994,2 55961  69.9983 129.6439 0002947 268.5060  91.5762 14.98355280 65887,6950.115,96.105,574.028,569.932,0.0
55961.0,STARLINK-5933,PAYLOAD,2024-05-18 08:31:34,14.98358347,0.0003003,69.9983,129.3076,270.7113,89.3702,0.00018799,2.152e-05,0.0,0 STARLINK-5933,1 55961U 23037AZ  24139.35525520  .00002152  00000-0  18799-3 0  9994,2 55961  69.9983 129.3076 0003003 270.7113  89.3702 14.98358347 65560,6950.105,96.105,574.057,569.883,0.0
55961.0,STARLINK-5933,PAYLOAD,2024-05-18 16:32:15,14.98338568,0.0003307,69.9997,128.4665,268.4451,91.6329,2.1634e-05,1.65e-06,0.0,0 STARLINK-5933,1 55961U 23037AZ  24139.68906684  .00000165  00000-0  21634-4 0  9999,2 55961  69.9997 128.4665 0003307 268.4451  91.6329 14.98338568 65952,6950.166,96.106,574.33,569.733,0.0
